[{"OBJECT_NAME":"YUNHAI-2 02E","OBJECT_ID":"2024-052E","EPOCH":"2026-03-09T23:04:08.218272","MEAN_MOTION":14.27923834,"ECCENTRICITY":0.00117453,"INCLINATION":50.0117,"RA_OF_ASC_NODE":23.2487,"ARG_OF_PERICENTER":69.3739,"MEAN_ANOMALY":290.8434,"EPHEMERIS_TYPE":0,"CLASSIFICATION_TYPE":"U","NORAD_CAT_ID":59284,"ELEMENT_SET_NO":999,"REV_AT_EPOCH":9275,"BSTAR":0.0001398659,"MEAN_MOTION_DOT":1.88e-6,"MEAN_MOTION_DDOT":0},{"OBJECT_NAME":"COSMOS 2251 DEB","OBJECT_ID":"1993-036AYL","EPOCH":"2026-03-06T12:33:19.868832","MEAN_MOTION":14.35079196,"ECCENTRICITY":0.00249307,"INCLINATION":74.0341,"RA_OF_ASC_NODE":168.9602,"ARG_OF_PERICENTER":222.4578,"MEAN_ANOMALY":137.4647,"EPHEMERIS_TYPE":0,"CLASSIFICATION_TYPE":"U","NORAD_CAT_ID":36073,"ELEMENT_SET_NO":999,"REV_AT_EPOCH":71409,"BSTAR":0.000320401,"MEAN_MOTION_DOT":8.91e-6,"MEAN_MOTION_DDOT":0}]
